{
  "norad_id": 68571,
  "name": "MERIDIAN-M 21L",
  "history": [
    {
      "epoch": "2026-04-03T07:41:47.992704Z",
      "apogee_km": 39714.245899479916,
      "perigee_km": 996.3754323670591,
      "latitude_deg": 0.00076119537961569,
      "longitude_deg": -68.3231490121092,
      "height_km": 4327.669993237752,
      "semi_major_axis_km": 26733.447665923486,
      "eccentricity": 0.7241466,
      "inclination_deg": 62.7917,
      "raan_deg": 238.8364,
      "arg_perigee_deg": 284.9481,
      "mean_anomaly_deg": 10.7459,
      "mean_motion_rev_day": 1.98618778
    },
    {
      "epoch": "2026-04-07T08:22:08.158656Z",
      "apogee_km": 39709.77876780866,
      "perigee_km": 1002.8939173178615,
      "latitude_deg": 0.0008411849397012366,
      "longitude_deg": -82.9222132401845,
      "height_km": 4339.95110261145,
      "semi_major_axis_km": 26734.473342563262,
      "eccentricity": 0.72391336,
      "inclination_deg": 62.7813,
      "raan_deg": 238.294,
      "arg_perigee_deg": 284.9661,
      "mean_anomaly_deg": 10.8056,
      "mean_motion_rev_day": 1.98607348
    },
    {
      "epoch": "2026-04-09T08:42:21.904128Z",
      "apogee_km": 39707.378012433706,
      "perigee_km": 1006.1836535538268,
      "latitude_deg": 0.00016631129760449545,
      "longitude_deg": -90.22909292394107,
      "height_km": 4344.89531221509,
      "semi_major_axis_km": 26734.917832993768,
      "eccentricity": 0.7237949,
      "inclination_deg": 62.7825,
      "raan_deg": 238.0227,
      "arg_perigee_deg": 284.9743,
      "mean_anomaly_deg": 10.8196,
      "mean_motion_rev_day": 1.98602395
    },
    {
      "epoch": "2026-04-10T08:52:29.570880Z",
      "apogee_km": 39705.99638507221,
      "perigee_km": 1007.7892819211229,
      "latitude_deg": 0.00010529145157560694,
      "longitude_deg": -93.88766870217243,
      "height_km": 4346.446885967975,
      "semi_major_axis_km": 26735.02983349667,
      "eccentricity": 0.723736,
      "inclination_deg": 62.7812,
      "raan_deg": 237.8861,
      "arg_perigee_deg": 284.9786,
      "mean_anomaly_deg": 10.8209,
      "mean_motion_rev_day": 1.98601147
    },
    {
      "epoch": "2026-04-11T09:02:37.209984Z",
      "apogee_km": 39704.76221015673,
      "perigee_km": 1009.2510500048493,
      "latitude_deg": 5.919774022038885e-06,
      "longitude_deg": -97.54745412956527,
      "height_km": 4347.331664653696,
      "semi_major_axis_km": 26735.14363008079,
      "eccentricity": 0.7236825,
      "inclination_deg": 62.7823,
      "raan_deg": 237.7501,
      "arg_perigee_deg": 284.9819,
      "mean_anomaly_deg": 10.8192,
      "mean_motion_rev_day": 1.98599879
    },
    {
      "epoch": "2026-04-12T09:12:45.756288Z",
      "apogee_km": 39703.3200900701,
      "perigee_km": 1010.9841267145366,
      "latitude_deg": 0.00019741004421977324,
      "longitude_deg": -101.21363037585827,
      "height_km": 4348.1170261291,
      "semi_major_axis_km": 26735.289108392317,
      "eccentricity": 0.72361918,
      "inclination_deg": 62.7821,
      "raan_deg": 237.6139,
      "arg_perigee_deg": 284.9856,
      "mean_anomaly_deg": 10.8166,
      "mean_motion_rev_day": 1.98598258
    }
  ]
}